start=new Date('2022-07-04T00:00:00.000Z').valueOf();
sats=[{"ECCENTRICITY":"0.00017270","BSTAR":"0.00108050000000","TLE_LINE2":"2 52117  53.2171 356.0246 0001727  54.5029 288.8035 15.08810127  1306","ELEMENT_SET_NO":"999","RA_OF_ASC_NODE":"356.0246","REV_AT_EPOCH":"130","TIME_SYSTEM":"UTC","FILE":"3507292","REF_FRAME":"TEME","CLASSIFICATION_TYPE":"U","OBJECT_ID":"2022-029AF","OBJECT_NAME":"STARLINK-3738","EPHEMERIS_TYPE":"0","PERIAPSIS":"538.642","LAUNCH_DATE":"2022-03-19","DECAY_DATE":null,"MEAN_MOTION_DDOT":"0.0000000000000","RCS_SIZE":"LARGE","PERIOD":"95.439","SITE":"AFETR","OBJECT_TYPE":"PAYLOAD","INCLINATION":"53.2171","APOAPSIS":"541.031","MEAN_MOTION":"15.08810127","EPOCH":"2022-07-03T22:00:00.999936","MEAN_ELEMENT_THEORY":"SGP4","SEMIMAJOR_AXIS":"6917.972","CENTER_NAME":"EARTH","NORAD_CAT_ID":"52117","MEAN_MOTION_DOT":"0.00016936","GP_ID":"207359574","TLE_LINE1":"1 52117U 22029AF  22184.91667824  .00016936  00000-0  10805-2 0  9992","ARG_OF_PERICENTER":"54.5029","COUNTRY_CODE":"US","MEAN_ANOMALY":"288.8035"},{"COUNTRY_CODE":"US","ARG_OF_PERICENTER":"48.6082","MEAN_ANOMALY":"234.7109","TLE_LINE1":"1 52118U 22029AG  22184.91667824  .00033155  00000-0  20937-2 0  9992","GP_ID":"207359459","NORAD_CAT_ID":"52118","CENTER_NAME":"EARTH","MEAN_MOTION_DOT":"0.00033155","EPOCH":"2022-07-03T22:00:00.999936","MEAN_MOTION":"15.08801162","APOAPSIS":"540.908","INCLINATION":"53.2157","SEMIMAJOR_AXIS":"6917.999","MEAN_ELEMENT_THEORY":"SGP4","PERIOD":"95.440","RCS_SIZE":"LARGE","MEAN_MOTION_DDOT":"0.0000000000000","DECAY_DATE":null,"OBJECT_TYPE":"PAYLOAD","SITE":"AFETR","PERIAPSIS":"538.820","LAUNCH_DATE":"2022-03-19","REF_FRAME":"TEME","FILE":"3507292","OBJECT_NAME":"STARLINK-3743","EPHEMERIS_TYPE":"0","OBJECT_ID":"2022-029AG","CLASSIFICATION_TYPE":"U","ELEMENT_SET_NO":"999","TLE_LINE2":"2 52118  53.2157 356.0263 0001509  48.6082 234.7109 15.08801162  1302","REV_AT_EPOCH":"130","RA_OF_ASC_NODE":"356.0263","BSTAR":"0.00209370000000","ECCENTRICITY":"0.00015090","TIME_SYSTEM":"UTC"},{"SEMIMAJOR_AXIS":"6918.010","MEAN_ELEMENT_THEORY":"SGP4","APOAPSIS":"540.964","INCLINATION":"53.2173","EPOCH":"2022-07-03T22:00:00.999936","MEAN_MOTION":"15.08797642","MEAN_MOTION_DOT":"0.00043627","CENTER_NAME":"EARTH","NORAD_CAT_ID":"52119","GP_ID":"207359123","TLE_LINE1":"1 52119U 22029AH  22184.91667824  .00043627  00000-0  27455-2 0  9990","MEAN_ANOMALY":"328.8811","COUNTRY_CODE":"US","ARG_OF_PERICENTER":"54.4319","TIME_SYSTEM":"UTC","BSTAR":"0.00274550000000","ECCENTRICITY":"0.00015740","ELEMENT_SET_NO":"999","TLE_LINE2":"2 52119  53.2173 356.0253 0001574  54.4319 328.8811 15.08797642  1302","RA_OF_ASC_NODE":"356.0253","REV_AT_EPOCH":"130","CLASSIFICATION_TYPE":"U","EPHEMERIS_TYPE":"0","OBJECT_NAME":"STARLINK-3558","OBJECT_ID":"2022-029AH","FILE":"3507292","REF_FRAME":"TEME","LAUNCH_DATE":"2022-03-19","PERIAPSIS":"538.786","OBJECT_TYPE":"PAYLOAD","SITE":"AFETR","PERIOD":"95.440","RCS_SIZE":"LARGE","MEAN_MOTION_DDOT":"0.0000000000000","DECAY_DATE":null},{"MEAN_ELEMENT_THEORY":"SGP4","SEMIMAJOR_AXIS":"6918.018","INCLINATION":"53.2163","APOAPSIS":"540.959","MEAN_MOTION":"15.08794825","EPOCH":"2022-07-03T22:00:00.999936","MEAN_MOTION_DOT":"0.00045112","CENTER_NAME":"EARTH","NORAD_CAT_ID":"52120","TLE_LINE1":"1 52120U 22029AJ  22184.91667824  .00045112  00000-0  28380-2 0  9991","GP_ID":"207359760","MEAN_ANOMALY":"269.8786","ARG_OF_PERICENTER":"53.4503","COUNTRY_CODE":"US","TIME_SYSTEM":"UTC","ECCENTRICITY":"0.00015550","BSTAR":"0.00283800000000","TLE_LINE2":"2 52120  53.2163 356.0249 0001555  53.4503 269.8786 15.08794825  1306","REV_AT_EPOCH":"130","RA_OF_ASC_NODE":"356.0249","ELEMENT_SET_NO":"999","CLASSIFICATION_TYPE":"U","EPHEMERIS_TYPE":"0","OBJECT_NAME":"STARLINK-3534","OBJECT_ID":"2022-029AJ","FILE":"3507292","REF_FRAME":"TEME","LAUNCH_DATE":"2022-03-19","PERIAPSIS":"538.808","SITE":"AFETR","OBJECT_TYPE":"PAYLOAD","DECAY_DATE":null,"RCS_SIZE":"LARGE","MEAN_MOTION_DDOT":"0.0000000000000","PERIOD":"95.440"},{"MEAN_MOTION_DOT":"-0.00010313","NORAD_CAT_ID":"52121","CENTER_NAME":"EARTH","MEAN_ELEMENT_THEORY":"SGP4","SEMIMAJOR_AXIS":"6917.952","MEAN_MOTION":"15.08816607","EPOCH":"2022-07-03T22:00:00.999936","INCLINATION":"53.2158","APOAPSIS":"541.034","MEAN_ANOMALY":"71.6924","ARG_OF_PERICENTER":"46.5742","COUNTRY_CODE":"US","GP_ID":"207359222","TLE_LINE1":"1 52121U 22029AK  22184.91667824 -.00010313  00000-0 -63118-3 0  9998","EPHEMERIS_TYPE":"0","OBJECT_ID":"2022-029AK","OBJECT_NAME":"STARLINK-3678","CLASSIFICATION_TYPE":"U","REF_FRAME":"TEME","FILE":"3507292","TIME_SYSTEM":"UTC","TLE_LINE2":"2 52121  53.2158 346.0446 0001759  46.5742  71.6924 15.08816607  1309","REV_AT_EPOCH":"130","RA_OF_ASC_NODE":"346.0446","ELEMENT_SET_NO":"999","BSTAR":"-0.00063118000000","ECCENTRICITY":"0.00017590","SITE":"AFETR","OBJECT_TYPE":"PAYLOAD","DECAY_DATE":null,"RCS_SIZE":"LARGE","MEAN_MOTION_DDOT":"0.0000000000000","PERIOD":"95.439","LAUNCH_DATE":"2022-03-19","PERIAPSIS":"538.600"},{"MEAN_ELEMENT_THEORY":"SGP4","SEMIMAJOR_AXIS":"6918.006","MEAN_MOTION":"15.08798950","EPOCH":"2022-07-03T22:00:00.999936","INCLINATION":"53.2163","APOAPSIS":"541.019","MEAN_MOTION_DOT":"0.00044469","NORAD_CAT_ID":"52122","CENTER_NAME":"EARTH","TLE_LINE1":"1 52122U 22029AL  22184.91667824  .00044469  00000-0  27977-2 0  9998","GP_ID":"207359107","MEAN_ANOMALY":"306.4033","ARG_OF_PERICENTER":"56.9254","COUNTRY_CODE":"US","TIME_SYSTEM":"UTC","ELEMENT_SET_NO":"999","TLE_LINE2":"2 52122  53.2163 356.0245 0001659  56.9254 306.4033 15.08798950  1306","RA_OF_ASC_NODE":"356.0245","REV_AT_EPOCH":"130","ECCENTRICITY":"0.00016590","BSTAR":"0.00279770000000","OBJECT_ID":"2022-029AL","OBJECT_NAME":"STARLINK-3726","EPHEMERIS_TYPE":"0","CLASSIFICATION_TYPE":"U","REF_FRAME":"TEME","FILE":"3507292","LAUNCH_DATE":"2022-03-19","PERIAPSIS":"538.723","SITE":"AFETR","OBJECT_TYPE":"PAYLOAD","DECAY_DATE":null,"RCS_SIZE":"LARGE","MEAN_MOTION_DDOT":"0.0000000000000","PERIOD":"95.440"},{"MEAN_MOTION_DOT":"0.00044698","CENTER_NAME":"EARTH","NORAD_CAT_ID":"52123","SEMIMAJOR_AXIS":"6917.929","MEAN_ELEMENT_THEORY":"SGP4","APOAPSIS":"541.275","INCLINATION":"53.2172","EPOCH":"2022-07-03T22:00:00.999936","MEAN_MOTION":"15.08824234","MEAN_ANOMALY":"117.2202","COUNTRY_CODE":"US","ARG_OF_PERICENTER":"40.9896","GP_ID":"207359476","TLE_LINE1":"1 52123U 22029AM  22184.91667824  .00044698  00000-0  28100-2 0  9992","CLASSIFICATION_TYPE":"U","OBJECT_NAME":"STARLINK-3725","OBJECT_ID":"2022-029AM","EPHEMERIS_TYPE":"0","FILE":"3507292","REF_FRAME":"TEME","TIME_SYSTEM":"UTC","ECCENTRICITY":"0.00021410","BSTAR":"0.00281000000000","TLE_LINE2":"2 52123  53.2172 346.0451 0002141  40.9896 117.2202 15.08824234  1308","RA_OF_ASC_NODE":"346.0451","ELEMENT_SET_NO":"999","REV_AT_EPOCH":"130","OBJECT_TYPE":"PAYLOAD","SITE":"AFETR","MEAN_MOTION_DDOT":"0.0000000000000","RCS_SIZE":"LARGE","PERIOD":"95.439","DECAY_DATE":null,"LAUNCH_DATE":"2022-03-19","PERIAPSIS":"538.312"},{"TIME_SYSTEM":"UTC","BSTAR":"0.00024107000000","ECCENTRICITY":"0.00014690","RA_OF_ASC_NODE":"356.0249","TLE_LINE2":"2 52124  53.2167 356.0249 0001469  56.7350 346.5697 15.08818534  1302","ELEMENT_SET_NO":"999","REV_AT_EPOCH":"130","CLASSIFICATION_TYPE":"U","OBJECT_NAME":"STARLINK-3684","OBJECT_ID":"2022-029AN","EPHEMERIS_TYPE":"0","FILE":"3507292","REF_FRAME":"TEME","LAUNCH_DATE":"2022-03-19","PERIAPSIS":"538.795","SITE":"AFETR","OBJECT_TYPE":"PAYLOAD","DECAY_DATE":null,"MEAN_MOTION_DDOT":"0.0000000000000","RCS_SIZE":"LARGE","PERIOD":"95.439","MEAN_ELEMENT_THEORY":"SGP4","SEMIMAJOR_AXIS":"6917.946","INCLINATION":"53.2167","APOAPSIS":"540.827","MEAN_MOTION":"15.08818534","EPOCH":"2022-07-03T22:00:00.999936","MEAN_MOTION_DOT":"0.00003549","CENTER_NAME":"EARTH","NORAD_CAT_ID":"52124","TLE_LINE1":"1 52124U 22029AN  22184.91667824  .00003549  00000-0  24107-3 0  9997","GP_ID":"207359410","MEAN_ANOMALY":"346.5697","ARG_OF_PERICENTER":"56.7350","COUNTRY_CODE":"US"},{"PERIAPSIS":"538.567","LAUNCH_DATE":"2022-03-19","DECAY_DATE":null,"RCS_SIZE":"LARGE","PERIOD":"95.439","MEAN_MOTION_DDOT":"0.0000000000000","SITE":"AFETR","OBJECT_TYPE":"PAYLOAD","ECCENTRICITY":"0.00017810","BSTAR":"0.00100250000000","TLE_LINE2":"2 52125  53.2165 346.0440 0001781  44.1631 134.0846 15.08822532  1302","RA_OF_ASC_NODE":"346.0440","ELEMENT_SET_NO":"999","REV_AT_EPOCH":"130","TIME_SYSTEM":"UTC","FILE":"3507292","REF_FRAME":"TEME","CLASSIFICATION_TYPE":"U","OBJECT_NAME":"STARLINK-3727","OBJECT_ID":"2022-029AP","EPHEMERIS_TYPE":"0","GP_ID":"207359575","TLE_LINE1":"1 52125U 22029AP  22184.91667824  .00015695  00000-0  10025-2 0  9996","ARG_OF_PERICENTER":"44.1631","COUNTRY_CODE":"US","MEAN_ANOMALY":"134.0846","INCLINATION":"53.2165","APOAPSIS":"541.031","MEAN_MOTION":"15.08822532","EPOCH":"2022-07-03T22:00:00.999936","MEAN_ELEMENT_THEORY":"SGP4","SEMIMAJOR_AXIS":"6917.934","CENTER_NAME":"EARTH","NORAD_CAT_ID":"52125","MEAN_MOTION_DOT":"0.00015695"},{"TLE_LINE1":"1 52126U 22029AQ  22184.91667824 -.00006408  00000-0 -38490-3 0  9998","GP_ID":"207359460","ARG_OF_PERICENTER":"44.2622","COUNTRY_CODE":"US","MEAN_ANOMALY":"93.8692","INCLINATION":"53.2159","APOAPSIS":"541.097","MEAN_MOTION":"15.08834427","EPOCH":"2022-07-03T22:00:00.999936","MEAN_ELEMENT_THEORY":"SGP4","SEMIMAJOR_AXIS":"6917.897","CENTER_NAME":"EARTH","NORAD_CAT_ID":"52126","MEAN_MOTION_DOT":"-0.00006408","PERIAPSIS":"538.428","LAUNCH_DATE":"2022-03-19","DECAY_DATE":null,"RCS_SIZE":"LARGE","MEAN_MOTION_DDOT":"0.0000000000000","PERIOD":"95.438","SITE":"AFETR","OBJECT_TYPE":"PAYLOAD","ECCENTRICITY":"0.00019290","BSTAR":"-0.00038490000000","REV_AT_EPOCH":"130","TLE_LINE2":"2 52126  53.2159 346.0451 0001929  44.2622  93.8692 15.08834427  1300","RA_OF_ASC_NODE":"346.0451","ELEMENT_SET_NO":"999","TIME_SYSTEM":"UTC","FILE":"3507292","REF_FRAME":"TEME","CLASSIFICATION_TYPE":"U","OBJECT_NAME":"STARLINK-3732","OBJECT_ID":"2022-029AQ","EPHEMERIS_TYPE":"0"}];
